[{"OBJECT_NAME":"STARLINK-30798","OBJECT_ID":"2023-167X","EPOCH":"2026-03-09T13:31:29.000640","MEAN_MOTION":15.27577174,"ECCENTRICITY":0.0002809,"INCLINATION":43.0038,"RA_OF_ASC_NODE":144.2954,"ARG_OF_PERICENTER":265.2995,"MEAN_ANOMALY":94.7536,"EPHEMERIS_TYPE":0,"CLASSIFICATION_TYPE":"U","NORAD_CAT_ID":58196,"ELEMENT_SET_NO":999,"REV_AT_EPOCH":13096,"BSTAR":0.00024589,"MEAN_MOTION_DOT":6.51e-5,"MEAN_MOTION_DDOT":0},{"OBJECT_NAME":"TRANSPORTER-1 OBJECT Z","OBJECT_ID":"2021-006Z","EPOCH":"2026-03-09T22:55:57.522432","MEAN_MOTION":15.30965056,"ECCENTRICITY":0.00100878,"INCLINATION":97.2377,"RA_OF_ASC_NODE":113.4736,"ARG_OF_PERICENTER":179.6869,"MEAN_ANOMALY":180.438,"EPHEMERIS_TYPE":0,"CLASSIFICATION_TYPE":"U","NORAD_CAT_ID":47436,"ELEMENT_SET_NO":999,"REV_AT_EPOCH":28420,"BSTAR":0.00024088983,"MEAN_MOTION_DOT":7.143e-5,"MEAN_MOTION_DDOT":0}]
